{"type": "FeatureCollection", "features": [ {"type": "Feature", "properties": {"norad_id": 17070, "name": "POLAR BEAR", "group": "nnss", "lat": -0.0032154998020510884, "lon": -175.8949856680867, "alt_km": 1007.5285161776328, "timestamp": "2025-12-04T10:51:50.374083+00:00", "meta": {"OBJECT_NAME": "POLAR BEAR", "OBJECT_ID": "1986-088A", "EPOCH": "2025-12-04T02:42:26.523072", "MEAN_MOTION": 13.75248152, "ECCENTRICITY": 0.0040353, "INCLINATION": 89.618, "RA_OF_ASC_NODE": 184.1187, "ARG_OF_PERICENTER": 144.367, "MEAN_ANOMALY": 334.4415, "EPHEMERIS_TYPE": 0, "CLASSIFICATION_TYPE": "U", "NORAD_CAT_ID": 17070, "ELEMENT_SET_NO": 999, "REV_AT_EPOCH": 95860, "BSTAR": 0.00017027, "MEAN_MOTION_DOT": 1.76e-06, "MEAN_MOTION_DDOT": 0}, "tle": {"line1": "1 17070U 86088A   25338.11280698  .00000176  00000+0  17027-3 0  9994", "line2": "2 17070  89.6180 184.1187 0040353 144.3670 334.4415 13.75248152958609"}}, "geometry": {"type": "Point", "coordinates": [-175.8949856680867, -0.0032154998020510884]}}, {"type": "Feature", "properties": {"norad_id": 18361, "name": "OSCAR 27", "group": "nnss", "lat": 81.53872185233745, "lon": 76.44440185972732, "alt_km": 1158.0149621237915, "timestamp": "2025-12-04T10:51:50.374093+00:00", "meta": {"OBJECT_NAME": "OSCAR 27", "OBJECT_ID": "1987-080A", "EPOCH": "2025-12-03T20:10:06.962304", "MEAN_MOTION": 13.44903756, "ECCENTRICITY": 0.0102392, "INCLINATION": 90.3742, "RA_OF_ASC_NODE": 78.9393, "ARG_OF_PERICENTER": 249.6441, "MEAN_ANOMALY": 109.3683, "EPHEMERIS_TYPE": 0, "CLASSIFICATION_TYPE": "U", "NORAD_CAT_ID": 18361, "ELEMENT_SET_NO": 999, "REV_AT_EPOCH": 87437, "BSTAR": 0.00023784, "MEAN_MOTION_DOT": 1.51e-06, "MEAN_MOTION_DDOT": 0}, "tle": {"line1": "1 18361U 87080A   25337.84035836  .00000151  00000+0  23784-3 0  9992", "line2": "2 18361  90.3742  78.9393 0102392 249.6441 109.3683 13.44903756874373"}}, "geometry": {"type": "Point", "coordinates": [76.44440185972732, 81.53872185233745]}}, {"type": "Feature", "properties": {"norad_id": 18362, "name": "OSCAR 29", "group": "nnss", "lat": 72.61035884107433, "lon": -99.37937906156762, "alt_km": 1160.2985280275634, "timestamp": "2025-12-04T10:51:50.374103+00:00", "meta": {"OBJECT_NAME": "OSCAR 29", "OBJECT_ID": "1987-080B", "EPOCH": "2025-12-03T20:39:17.885088", "MEAN_MOTION": 13.44445825, "ECCENTRICITY": 0.01037, "INCLINATION": 90.3756, "RA_OF_ASC_NODE": 79.3983, "ARG_OF_PERICENTER": 273.0095, "MEAN_ANOMALY": 210.8813, "EPHEMERIS_TYPE": 0, "CLASSIFICATION_TYPE": "U", "NORAD_CAT_ID": 18362, "ELEMENT_SET_NO": 999, "REV_AT_EPOCH": 87390, "BSTAR": 0.00020369, "MEAN_MOTION_DOT": 1.3e-06, "MEAN_MOTION_DDOT": 0}, "tle": {"line1": "1 18362U 87080B   25337.86062367  .00000130  00000+0  20369-3 0  9997", "line2": "2 18362  90.3756  79.3983 0103700 273.0095 210.8813 13.44445825873908"}}, "geometry": {"type": "Point", "coordinates": [-99.37937906156762, 72.61035884107433]}}, {"type": "Feature", "properties": {"norad_id": 19070, "name": "OSCAR 23", "group": "nnss", "lat": 19.465789563679966, "lon": 16.02167711525125, "alt_km": 1297.2337951165418, "timestamp": "2025-12-04T10:51:50.374113+00:00", "meta": {"OBJECT_NAME": "OSCAR 23", "OBJECT_ID": "1988-033A", "EPOCH": "2025-12-04T03:51:34.326144", "MEAN_MOTION": 13.27785161, "ECCENTRICITY": 0.0188814, "INCLINATION": 90.3222, "RA_OF_ASC_NODE": 16.1265, "ARG_OF_PERICENTER": 203.814, "MEAN_ANOMALY": 221.3732, "EPHEMERIS_TYPE": 0, "CLASSIFICATION_TYPE": "U", "NORAD_CAT_ID": 19070, "ELEMENT_SET_NO": 999, "REV_AT_EPOCH": 82139, "BSTAR": 0.00022567, "MEAN_MOTION_DOT": 1.2e-06, "MEAN_MOTION_DDOT": 0}, "tle": {"line1": "1 19070U 88033A   25338.16081396  .00000120  00000+0  22567-3 0  9991", "line2": "2 19070  90.3222  16.1265 0188814 203.8140 221.3732 13.27785161821390"}}, "geometry": {"type": "Point", "coordinates": [16.02167711525125, 19.465789563679966]}}, {"type": "Feature", "properties": {"norad_id": 19071, "name": "OSCAR 32", "group": "nnss", "lat": 57.133101041554056, "lon": -163.23324882040222, "alt_km": 1091.6800910513912, "timestamp": "2025-12-04T10:51:50.374123+00:00", "meta": {"OBJECT_NAME": "OSCAR 32", "OBJECT_ID": "1988-033B", "EPOCH": "2025-12-04T03:16:50.048832", "MEAN_MOTION": 13.27952281, "ECCENTRICITY": 0.0187629, "INCLINATION": 90.3227, "RA_OF_ASC_NODE": 16.2571, "ARG_OF_PERICENTER": 190.7186, "MEAN_ANOMALY": 224.3743, "EPHEMERIS_TYPE": 0, "CLASSIFICATION_TYPE": "U", "NORAD_CAT_ID": 19071, "ELEMENT_SET_NO": 999, "REV_AT_EPOCH": 82151, "BSTAR": 0.00022432, "MEAN_MOTION_DOT": 1.2e-06, "MEAN_MOTION_DDOT": 0}, "tle": {"line1": "1 19071U 88033B   25338.13669038  .00000120  00000+0  22432-3 0  9995", "line2": "2 19071  90.3227  16.2571 0187629 190.7186 224.3743 13.27952281821512"}}, "geometry": {"type": "Point", "coordinates": [-163.23324882040222, 57.133101041554056]}}, {"type": "Feature", "properties": {"norad_id": 19223, "name": "NOVA 2", "group": "nnss", "lat": 68.12293897137795, "lon": -101.7489839417889, "alt_km": 1159.8875425684846, "timestamp": "2025-12-04T10:51:50.374134+00:00", "meta": {"OBJECT_NAME": "NOVA 2", "OBJECT_ID": "1988-052A", "EPOCH": "2025-12-03T20:22:59.673792", "MEAN_MOTION": 13.22934277, "ECCENTRICITY": 0.00312959, "INCLINATION": 89.9873, "RA_OF_ASC_NODE": 78.2834, "ARG_OF_PERICENTER": 40.8343, "MEAN_ANOMALY": 78.7636, "EPHEMERIS_TYPE": 0, "CLASSIFICATION_TYPE": "U", "NORAD_CAT_ID": 19223, "ELEMENT_SET_NO": 999, "REV_AT_EPOCH": 80830, "BSTAR": 0.00015420407, "MEAN_MOTION_DOT": 7.4e-07, "MEAN_MOTION_DDOT": 0}, "tle": {"line1": "1 19223U 88052A   25337.84930178  .00000074  00000+0  15420-3 0  9995", "line2": "2 19223  89.9873  78.2834 0031295  40.8343  78.7636 13.22934277808303"}}, "geometry": {"type": "Point", "coordinates": [-101.7489839417889, 68.12293897137795]}}, {"type": "Feature", "properties": {"norad_id": 19419, "name": "OSCAR 25", "group": "nnss", "lat": -38.085533254761714, "lon": 20.244423715750713, "alt_km": 1062.2453587634063, "timestamp": "2025-12-04T10:51:50.374143+00:00", "meta": {"OBJECT_NAME": "OSCAR 25", "OBJECT_ID": "1988-074A", "EPOCH": "2025-12-04T02:15:01.619136", "MEAN_MOTION": 13.4262086, "ECCENTRICITY": 0.0094221, "INCLINATION": 90.0354, "RA_OF_ASC_NODE": 20.2154, "ARG_OF_PERICENTER": 270.9634, "MEAN_ANOMALY": 116.5151, "EPHEMERIS_TYPE": 0, "CLASSIFICATION_TYPE": "U", "NORAD_CAT_ID": 19419, "ELEMENT_SET_NO": 999, "REV_AT_EPOCH": 82524, "BSTAR": 0.0002867, "MEAN_MOTION_DOT": 1.75e-06, "MEAN_MOTION_DDOT": 0}, "tle": {"line1": "1 19419U 88074A   25338.09376874  .00000175  00000+0  28670-3 0  9994", "line2": "2 19419  90.0354  20.2154 0094221 270.9634 116.5151 13.42620860825243"}}, "geometry": {"type": "Point", "coordinates": [20.244423715750713, -38.085533254761714]}}, {"type": "Feature", "properties": {"norad_id": 19420, "name": "OSCAR 31", "group": "nnss", "lat": -25.286795856652382, "lon": -159.45230613514792, "alt_km": 1069.0501071696171, "timestamp": "2025-12-04T10:51:50.374153+00:00", "meta": {"OBJECT_NAME": "OSCAR 31", "OBJECT_ID": "1988-074B", "EPOCH": "2025-12-04T04:48:49.436352", "MEAN_MOTION": 13.42582601, "ECCENTRICITY": 0.009247, "INCLINATION": 90.0371, "RA_OF_ASC_NODE": 20.5643, "ARG_OF_PERICENTER": 264.7621, "MEAN_ANOMALY": 163.5934, "EPHEMERIS_TYPE": 0, "CLASSIFICATION_TYPE": "U", "NORAD_CAT_ID": 19420, "ELEMENT_SET_NO": 999, "REV_AT_EPOCH": 82536, "BSTAR": 0.0002635, "MEAN_MOTION_DOT": 1.61e-06, "MEAN_MOTION_DDOT": 0}, "tle": {"line1": "1 19420U 88074B   25338.20057218  .00000161  00000+0  26350-3 0  9995", "line2": "2 19420  90.0371  20.5643 0092470 264.7621 163.5934 13.42582601825365"}}, "geometry": {"type": "Point", "coordinates": [-159.45230613514792, -25.286795856652382]}}]}